[{"OBJECT_NAME":"QIANFAN-28","OBJECT_ID":"2024-185K","EPOCH":"2026-03-09T23:07:15.953376","MEAN_MOTION":14.28222603,"ECCENTRICITY":0.00077666,"INCLINATION":88.9768,"RA_OF_ASC_NODE":66.7039,"ARG_OF_PERICENTER":21.3295,"MEAN_ANOMALY":338.8222,"EPHEMERIS_TYPE":0,"CLASSIFICATION_TYPE":"U","NORAD_CAT_ID":61561,"ELEMENT_SET_NO":999,"REV_AT_EPOCH":8262,"BSTAR":0.0004308774,"MEAN_MOTION_DOT":1.088e-5,"MEAN_MOTION_DDOT":0},{"OBJECT_NAME":"METEOR 2-8 DEB","OBJECT_ID":"1982-025AF","EPOCH":"2026-03-09T07:35:21.821856","MEAN_MOTION":14.2537142,"ECCENTRICITY":0.00271862,"INCLINATION":82.5215,"RA_OF_ASC_NODE":289.6634,"ARG_OF_PERICENTER":58.3724,"MEAN_ANOMALY":302.0106,"EPHEMERIS_TYPE":0,"CLASSIFICATION_TYPE":"U","NORAD_CAT_ID":36345,"ELEMENT_SET_NO":999,"REV_AT_EPOCH":65132,"BSTAR":0.00106982,"MEAN_MOTION_DOT":2.547e-5,"MEAN_MOTION_DDOT":0}]
